NORAD_CAT_ID,OBJECT_NAME,OBJECT_TYPE,EPOCH,MEAN_MOTION,ECCENTRICITY,INCLINATION,RA_OF_ASC_NODE,ARG_OF_PERICENTER,MEAN_ANOMALY,BSTAR,MEAN_MOTION_DOT,MEAN_MOTION_DDOT,TLE_LINE0,TLE_LINE1,TLE_LINE2,SEMIMAJOR_AXIS,PERIOD,APOGEE,PERIGEE,DECAYED
53146.0,STARLINK-4099,PAYLOAD,2023-03-17 20:30:25,15.08840444,0.0001747,53.2187,17.605,86.7729,273.3463,0.00048584,7.453e-05,0.0,0 STARLINK-4099,1 53146U 22083Q   23076.85445721  .00007453  00000-0  48584-3 0  9999,2 53146  53.2187  17.6050 0001747  86.7729 273.3463 15.08840444 37628,6917.879,95.438,540.953,538.535,0.0
53146.0,STARLINK-4099,PAYLOAD,2023-03-18 12:24:16,15.0884523,0.0001594,53.2171,14.6272,87.5858,272.5316,0.0004387,6.702e-05,0.0,0 STARLINK-4099,1 53146U 22083Q   23077.51685546  .00006702  00000-0  43870-3 0  9993,2 53146  53.2171  14.6272 0001594  87.5858 272.5316 15.08845230 37093,6917.864,95.437,540.832,538.627,0.0
53146.0,STARLINK-4099,PAYLOAD,2023-03-19 02:42:44,15.08847887,0.0001464,53.2176,11.9565,99.5214,260.5944,0.0002685,3.989e-05,0.0,0 STARLINK-4099,1 53146U 22083Q   23078.11301286  .00003989  00000-0  26850-3 0  9999,2 53146  53.2176  11.9565 0001464  99.5214 260.5944 15.08847887 37812,6917.856,95.437,540.734,538.709,0.0
53146.0,STARLINK-4099,PAYLOAD,2023-03-19 12:15:03,15.08850393,0.000137,53.2167,10.1694,80.33,279.7847,0.00028544,4.259e-05,0.0,0 STARLINK-4099,1 53146U 22083Q   23078.51045147  .00004259  00000-0  28544-3 0  9997,2 53146  53.2167  10.1694 0001370  80.3300 279.7847 15.08850393 37243,6917.849,95.437,540.661,538.766,0.0
53146.0,STARLINK-4099,PAYLOAD,2023-03-19 20:11:58,15.08846078,0.0002058,53.2188,8.6852,85.0559,275.0668,0.00018241,2.617e-05,0.0,0 STARLINK-4099,1 53146U 22083Q   23078.84165472  .00002617  00000-0  18241-3 0  9996,2 53146  53.2188   8.6852 0002058  85.0559 275.0668 15.08846078 37926,6917.862,95.437,541.151,538.303,0.0
53146.0,STARLINK-4099,PAYLOAD,2023-03-20 04:08:54,15.08850709,0.0001441,53.2177,7.1984,96.7515,263.3641,0.00041311,6.295e-05,0.0,0 STARLINK-4099,1 53146U 22083Q   23079.17285228  .00006295  00000-0  41311-3 0  9995,2 53146  53.2177   7.1984 0001441  96.7515 263.3641 15.08850709 37343,6917.848,95.437,540.71,538.716,0.0
53146.0,STARLINK-4099,PAYLOAD,2023-03-21 03:59:40,15.08866816,0.0001516,53.2174,2.736,86.6055,273.511,0.00086653,0.0001354,0.0,0 STARLINK-4099,1 53146U 22083Q   23080.16644647  .00013540  00000-0  86653-3 0  9999,2 53146  53.2174   2.7360 0001516  86.6055 273.5110 15.08866816 38126,6917.798,95.436,540.712,538.615,0.0
53146.0,STARLINK-4099,PAYLOAD,2023-03-22 03:50:28,15.08840776,0.0001396,53.2173,358.2766,79.1725,280.9424,0.00057308,8.845e-05,0.0,0 STARLINK-4099,1 53146U 22083Q   23081.16005627  .00008845  00000-0  57308-3 0  9996,2 53146  53.2173 358.2766 0001396  79.1725 280.9424 15.08840776 38274,6917.878,95.438,540.709,538.777,0.0
53146.0,STARLINK-4099,PAYLOAD,2023-03-23 03:41:15,15.08864783,0.0001765,53.217,353.8142,61.5806,298.5364,0.0018375,0.00029097,0.0,0 STARLINK-4099,1 53146U 22083Q   23082.15365279  .00029097  00000-0  18375-2 0  9990,2 53146  53.2170 353.8142 0001765  61.5806 298.5364 15.08864783 37793,6917.805,95.436,540.891,538.449,0.0
53146.0,STARLINK-4099,PAYLOAD,2023-03-23 21:10:30,15.08837829,0.0001327,53.2174,350.5449,70.7459,289.3677,0.00014581,2.033e-05,0.0,0 STARLINK-4099,1 53146U 22083Q   23082.88229647  .00002033  00000-0  14581-3 0  9995,2 53146  53.2174 350.5449 0001327  70.7459 289.3677 15.08837829 38530,6917.887,95.438,540.67,538.834,0.0
53146.0,STARLINK-4099,PAYLOAD,2023-03-23 22:45:53,15.08843679,0.0001391,53.2176,350.2477,63.4209,296.6925,0.00047452,7.273e-05,0.0,0 STARLINK-4099,1 53146U 22083Q   23082.94853631  .00007273  00000-0  47452-3 0  9992,2 53146  53.2176 350.2477 0001391  63.4209 296.6925 15.08843679 38541,6917.869,95.437,540.696,538.772,0.0
53146.0,STARLINK-4099,PAYLOAD,2023-03-24 21:01:16,15.0887422,0.0001221,53.2194,346.0782,71.5634,288.5491,0.0010946,0.00017192,0.0,0 STARLINK-4099,1 53146U 22083Q   23083.87588418  .00017192  00000-0  10946-2 0  9991,2 53146  53.2194 346.0782 0001221  71.5634 288.5491 15.08874220 38686,6917.776,95.435,540.485,538.796,0.0
53146.0,STARLINK-4099,PAYLOAD,2023-03-24 22:36:39,15.08877538,0.0001287,53.2171,345.7859,78.2379,281.8757,0.0011303,0.00017765,0.0,0 STARLINK-4099,1 53146U 22083Q   23083.94212291  .00017765  00000-0  11303-2 0  9996,2 53146  53.2171 345.7859 0001287  78.2379 281.8757 15.08877538 38062,6917.766,95.435,540.521,538.74,0.0
53146.0,STARLINK-4099,PAYLOAD,2023-03-25 20:52:04,15.08816375,0.000103,53.2172,341.6239,59.7427,300.3667,-0.0003341,-5.597e-05,0.0,0 STARLINK-4099,1 53146U 22083Q   23084.86949779 -.00005597  00000-0 -33410-3 0  9992,2 53146  53.2172 341.6239 0001030  59.7427 300.3667 15.08816375 38838,6917.953,95.439,540.53,539.105,0.0
53146.0,STARLINK-4099,PAYLOAD,2023-03-25 22:27:27,15.08815797,0.000126,53.2172,341.3263,101.75,258.3634,-0.00031021,-5.218e-05,0.0,0 STARLINK-4099,1 53146U 22083Q   23084.93573729 -.00005218  00000-0 -31021-3 0  9994,2 53146  53.2172 341.3263 0001260 101.7500 258.3634 15.08815797 38212,6917.954,95.439,540.691,538.948,0.0
53146.0,STARLINK-4099,PAYLOAD,2023-03-26 20:42:52,15.08839669,0.0001202,53.2169,337.1636,114.7702,245.3415,0.00113,0.00017741,0.0,0 STARLINK-4099,1 53146U 22083Q   23085.86310940  .00017741  00000-0  11300-2 0  9990,2 53146  53.2169 337.1636 0001202 114.7702 245.3415 15.08839669 38980,6917.881,95.438,540.578,538.915,0.0
53146.0,STARLINK-4099,PAYLOAD,2023-03-26 22:18:15,15.08844108,0.0001198,53.2169,336.8666,114.1527,245.9591,0.0012887,0.00020283,0.0,0 STARLINK-4099,1 53146U 22083Q   23085.92934921  .00020283  00000-0  12887-2 0  9994,2 53146  53.2169 336.8666 0001198 114.1527 245.9591 15.08844108 38369,6917.868,95.437,540.562,538.904,0.0
53146.0,STARLINK-4099,PAYLOAD,2023-03-27 01:29:01,15.08855062,0.0001291,53.2173,336.2728,118.5377,241.5745,0.0015725,0.00024837,0.0,0 STARLINK-4099,1 53146U 22083Q   23086.06182765  .00024837  00000-0  15725-2 0  9994,2 53146  53.2173 336.2728 0001291 118.5377 241.5745 15.08855062 39019,6917.834,95.437,540.592,538.806,0.0
53146.0,STARLINK-4099,PAYLOAD,2023-03-27 20:33:39,15.08855433,0.0001649,53.2175,332.7059,107.236,252.8813,0.00095737,0.00014988,0.0,0 STARLINK-4099,1 53146U 22083Q   23086.85670646  .00014988  00000-0  95737-3 0  9999,2 53146  53.2175 332.7059 0001649 107.2360 252.8813 15.08855433 39139,6917.833,95.437,540.839,538.557,0.0
53146.0,STARLINK-4099,PAYLOAD,2023-03-27 22:09:02,15.08856424,0.0001525,53.2174,332.4074,122.8582,237.2557,0.00067625,0.00010496,0.0,0 STARLINK-4099,1 53146U 22083Q   23086.92294417  .00010496  00000-0  67625-3 0  9990,2 53146  53.2174 332.4074 0001525 122.8582 237.2557 15.08856424 38518,6917.83,95.437,540.75,538.64,0.0
53146.0,STARLINK-4099,PAYLOAD,2023-03-27 23:44:25,15.08856299,0.0001196,53.2169,332.1069,87.6771,272.4358,0.00068202,0.00010588,0.0,0 STARLINK-4099,1 53146U 22083Q   23086.98918502  .00010588  00000-0  68202-3 0  9998,2 53146  53.2169 332.1069 0001196  87.6771 272.4358 15.08856299 38526,6917.831,95.437,540.523,538.868,0.0
53146.0,STARLINK-4099,PAYLOAD,2023-03-28 20:24:26,15.08840062,0.000116,53.2177,328.2468,52.87,307.2398,0.00022034,3.221e-05,0.0,0 STARLINK-4099,1 53146U 22083Q   23087.85030541  .00003221  00000-0  22034-3 0  9992,2 53146  53.2177 328.2468 0001160  52.8700 307.2398 15.08840062 39287,6917.88,95.438,540.548,538.943,0.0
53146.0,STARLINK-4099,PAYLOAD,2023-03-28 23:35:12,15.08853074,0.0001229,53.217,327.6476,89.1307,270.9826,0.00048734,7.479e-05,0.0,0 STARLINK-4099,1 53146U 22083Q   23087.98278098  .00007479  00000-0  48734-3 0  9991,2 53146  53.2170 327.6476 0001229  89.1307 270.9826 15.08853074 39306,6917.84,95.437,540.556,538.855,0.0
53146.0,STARLINK-4099,PAYLOAD,2023-03-29 21:50:36,15.08844523,0.0001108,53.217,323.4864,92.261,267.8509,0.00039909,6.07e-05,0.0,0 STARLINK-4099,1 53146U 22083Q   23088.91014311  .00006070  00000-0  39909-3 0  9991,2 53146  53.2170 323.4864 0001108  92.2610 267.8509 15.08844523 38816,6917.867,95.437,540.498,538.965,0.0
53146.0,STARLINK-4099,PAYLOAD,2023-03-30 04:12:08,15.08865994,0.0001003,53.2159,322.2947,88.0801,272.0306,0.0011258,0.00017687,0.0,0 STARLINK-4099,1 53146U 22083Q   23089.17509828  .00017687  00000-0  11258-2 0  9994,2 53146  53.2159 322.2947 0001003  88.0801 272.0306 15.08865994 39483,6917.801,95.436,540.36,538.972,0.0
53146.0,STARLINK-4099,PAYLOAD,2023-03-30 23:16:46,15.08851666,0.0001929,53.2159,318.7308,41.044,319.0697,0.0011758,0.0001848,0.0,0 STARLINK-4099,1 53146U 22083Q   23089.96998810  .00018480  00000-0  11758-2 0  9991,2 53146  53.2159 318.7308 0001929  41.0440 319.0697 15.08851666 39609,6917.845,95.437,541.044,538.375,0.0
53146.0,STARLINK-4099,PAYLOAD,2023-03-31 19:56:47,15.08846798,8.1e-05,53.2164,314.8604,103.2716,256.8367,0.0011784,0.00018519,0.0,0 STARLINK-4099,1 53146U 22083Q   23090.83110692  .00018519  00000-0  11784-2 0  9995,2 53146  53.2164 314.8604 0000810 103.2716 256.8367 15.08846798 39732,6917.86,95.437,540.285,539.164,0.0
53146.0,STARLINK-4099,PAYLOAD,2023-04-01 15:01:25,15.08839203,0.0001194,53.2173,311.2911,81.6416,278.4711,0.00025863,3.831e-05,0.0,0 STARLINK-4099,1 53146U 22083Q   23091.62599269  .00003831  00000-0  25863-3 0  9999,2 53146  53.2173 311.2911 0001194  81.6416 278.4711 15.08839203 39226,6917.883,95.438,540.574,538.922,0.0
53146.0,STARLINK-4099,PAYLOAD,2023-04-01 21:22:58,15.08836665,7.38e-05,53.216,310.1018,80.9037,279.2038,0.00066278,0.00010275,0.0,0 STARLINK-4099,1 53146U 22083Q   23091.89095433  .00010275  00000-0  66278-3 0  9997,2 53146  53.2160 310.1018 0000738  80.9037 279.2038 15.08836665 39895,6917.891,95.438,540.266,539.245,0.0
53146.0,STARLINK-4099,PAYLOAD,2023-04-02 14:52:12,15.08848089,7.64e-05,53.2162,306.8322,92.6984,267.4096,0.00061121,9.455e-05,0.0,0 STARLINK-4099,1 53146U 22083Q   23092.61959302  .00009455  00000-0  61121-3 0  9992,2 53146  53.2162 306.8322 0000764  92.6984 267.4096 15.08848089 39376,6917.856,95.437,540.249,539.192,0.0
